[{"OBJECT_NAME":"STARLINK-6077","OBJECT_ID":"2023-046E","EPOCH":"2026-03-08T12:28:55.363872","MEAN_MOTION":15.02540204,"ECCENTRICITY":0.00010363,"INCLINATION":43.0029,"RA_OF_ASC_NODE":113.4559,"ARG_OF_PERICENTER":257.3211,"MEAN_ANOMALY":102.7515,"EPHEMERIS_TYPE":0,"CLASSIFICATION_TYPE":"U","NORAD_CAT_ID":56097,"ELEMENT_SET_NO":999,"REV_AT_EPOCH":16248,"BSTAR":4.7584072e-5,"MEAN_MOTION_DOT":4.39e-6,"MEAN_MOTION_DDOT":0},{"OBJECT_NAME":"SPOT 2","OBJECT_ID":"1990-005A","EPOCH":"2026-03-09T21:55:30.289728","MEAN_MOTION":14.73729036,"ECCENTRICITY":0.01297919,"INCLINATION":98.6985,"RA_OF_ASC_NODE":218.7434,"ARG_OF_PERICENTER":40.4901,"MEAN_ANOMALY":320.5875,"EPHEMERIS_TYPE":0,"CLASSIFICATION_TYPE":"U","NORAD_CAT_ID":20436,"ELEMENT_SET_NO":999,"REV_AT_EPOCH":90070,"BSTAR":0.00013767957,"MEAN_MOTION_DOT":9.62e-6,"MEAN_MOTION_DDOT":0}]
